{
  "type": "FeatureCollection",
  "features": [
    {
      "type": "Feature",
      "properties": {
        "norad_id": 66433,
        "name": "STARLINK-35457",
        "group": "last-30-days",
        "lat": -36.88010814157484,
        "lon": -64.19910357685205,
        "alt_km": 446.58924694539655,
        "timestamp": "2025-12-10T05:46:12.574202+00:00",
        "meta_object_name": "STARLINK-35457",
        "meta_object_id": "2025-259M",
        "meta_epoch": "2025-12-09T20:00:01.999008",
        "meta_mean_motion": 15.40777523,
        "meta_eccentricity": 0.0001223,
        "meta_inclination": 43.0003,
        "meta_ra_of_asc_node": 64.5237,
        "meta_arg_of_pericenter": 272.216,
        "meta_mean_anomaly": 228.9236,
        "meta_ephemeris_type": 0,
        "meta_classification_type": "U",
        "meta_norad_cat_id": 66433,
        "meta_element_set_no": 999,
        "meta_rev_at_epoch": 581,
        "meta_bstar": -0.0038921,
        "meta_mean_motion_dot": -0.00159933,
        "meta_mean_motion_ddot": 0,
        "tle_line1": "1 66433U 25259M   25343.83335647 -.00159933  00000+0 -38921-2 0  9997",
        "tle_line2": "2 66433  43.0003  64.5237 0001223 272.2160 228.9236 15.40777523  5816"
      },
      "geometry": {
        "type": "Point",
        "coordinates": [
          -64.19910357685205,
          -36.88010814157484
        ]
      }
    },
    {
      "type": "Feature",
      "properties": {
        "norad_id": 66434,
        "name": "STARLINK-35389",
        "group": "last-30-days",
        "lat": -40.97244551515666,
        "lon": -49.113213167708196,
        "alt_km": 446.9789651972651,
        "timestamp": "2025-12-10T05:46:12.574212+00:00",
        "meta_object_name": "STARLINK-35389",
        "meta_object_id": "2025-259N",
        "meta_epoch": "2025-12-09T20:00:01.999008",
        "meta_mean_motion": 15.40800843,
        "meta_eccentricity": 0.000101,
        "meta_inclination": 43.0003,
        "meta_ra_of_asc_node": 64.4936,
        "meta_arg_of_pericenter": 292.3397,
        "meta_mean_anomaly": 221.2379,
        "meta_ephemeris_type": 0,
        "meta_classification_type": "U",
        "meta_norad_cat_id": 66434,
        "meta_element_set_no": 999,
        "meta_rev_at_epoch": 581,
        "meta_bstar": -0.0047935,
        "meta_mean_motion_dot": -0.00196132,
        "meta_mean_motion_ddot": 0,
        "tle_line1": "1 66434U 25259N   25343.83335647 -.00196132  00000+0 -47935-2 0  9995",
        "tle_line2": "2 66434  43.0003  64.4936 0001010 292.3397 221.2379 15.40800843  5817"
      },
      "geometry": {
        "type": "Point",
        "coordinates": [
          -49.113213167708196,
          -40.97244551515666
        ]
      }
    },
    {
      "type": "Feature",
      "properties": {
        "norad_id": 66435,
        "name": "STARLINK-35502",
        "group": "last-30-days",
        "lat": -42.88098386578246,
        "lon": -32.64827622086173,
        "alt_km": 446.8248614325312,
        "timestamp": "2025-12-10T05:46:12.574225+00:00",
        "meta_object_name": "STARLINK-35502",
        "meta_object_id": "2025-259P",
        "meta_epoch": "2025-12-09T20:00:01.999008",
        "meta_mean_motion": 15.40728907,
        "meta_eccentricity": 0.0001153,
        "meta_inclination": 43.0002,
        "meta_ra_of_asc_node": 64.4635,
        "meta_arg_of_pericenter": 287.6292,
        "meta_mean_anomaly": 238.4071,
        "meta_ephemeris_type": 0,
        "meta_classification_type": "U",
        "meta_norad_cat_id": 66435,
        "meta_element_set_no": 999,
        "meta_rev_at_epoch": 581,
        "meta_bstar": -0.002267,
        "meta_mean_motion_dot": -0.00093934,
        "meta_mean_motion_ddot": 0,
        "tle_line1": "1 66435U 25259P   25343.83335647 -.00093934  00000+0 -22670-2 0  9991",
        "tle_line2": "2 66435  43.0002  64.4635 0001153 287.6292 238.4071 15.40728907  5811"
      },
      "geometry": {
        "type": "Point",
        "coordinates": [
          -32.64827622086173,
          -42.88098386578246
        ]
      }
    },
    {
      "type": "Feature",
      "properties": {
        "norad_id": 66436,
        "name": "STARLINK-35501",
        "group": "last-30-days",
        "lat": -39.416861018138746,
        "lon": 0.16977638163980682,
        "alt_km": 446.56406981565215,
        "timestamp": "2025-12-10T05:46:12.574235+00:00",
        "meta_object_name": "STARLINK-35501",
        "meta_object_id": "2025-259Q",
        "meta_epoch": "2025-12-09T20:00:01.999008",
        "meta_mean_motion": 15.40749957,
        "meta_eccentricity": 0.0001255,
        "meta_inclination": 43.0001,
        "meta_ra_of_asc_node": 64.4012,
        "meta_arg_of_pericenter": 296.2703,
        "meta_mean_anomaly": 254.631,
        "meta_ephemeris_type": 0,
        "meta_classification_type": "U",
        "meta_norad_cat_id": 66436,
        "meta_element_set_no": 999,
        "meta_rev_at_epoch": 581,
        "meta_bstar": -0.0031008,
        "meta_mean_motion_dot": -0.00127894,
        "meta_mean_motion_ddot": 0,
        "tle_line1": "1 66436U 25259Q   25343.83335647 -.00127894  00000+0 -31008-2 0  9990",
        "tle_line2": "2 66436  43.0001  64.4012 0001255 296.2703 254.6310 15.40749957  5810"
      },
      "geometry": {
        "type": "Point",
        "coordinates": [
          0.16977638163980682,
          -39.416861018138746
        ]
      }
    },
    {
      "type": "Feature",
      "properties": {
        "norad_id": 66437,
        "name": "STARLINK-35474",
        "group": "last-30-days",
        "lat": -34.52391381059398,
        "lon": 14.447310002711818,
        "alt_km": 445.9762027798133,
        "timestamp": "2025-12-10T05:46:12.574247+00:00",
        "meta_object_name": "STARLINK-35474",
        "meta_object_id": "2025-259R",
        "meta_epoch": "2025-12-09T20:00:01.999008",
        "meta_mean_motion": 15.40660852,
        "meta_eccentricity": 0.0001629,
        "meta_inclination": 43.0002,
        "meta_ra_of_asc_node": 64.3715,
        "meta_arg_of_pericenter": 289.7488,
        "meta_mean_anomaly": 273.6145,
        "meta_ephemeris_type": 0,
        "meta_classification_type": "U",
        "meta_norad_cat_id": 66437,
        "meta_element_set_no": 999,
        "meta_rev_at_epoch": 581,
        "meta_bstar": 0.00074045,
        "meta_mean_motion_dot": 0.00030711,
        "meta_mean_motion_ddot": 0,
        "tle_line1": "1 66437U 25259R   25343.83335647  .00030711  00000+0  74045-3 0  9999",
        "tle_line2": "2 66437  43.0002  64.3715 0001629 289.7488 273.6145 15.40660852  5816"
      },
      "geometry": {
        "type": "Point",
        "coordinates": [
          14.447310002711818,
          -34.52391381059398
        ]
      }
    },
    {
      "type": "Feature",
      "properties": {
        "norad_id": 66438,
        "name": "STARLINK-34681",
        "group": "last-30-days",
        "lat": -28.151216186333603,
        "lon": 26.950726090900364,
        "alt_km": 445.960789942701,
        "timestamp": "2025-12-10T05:46:12.574257+00:00",
        "meta_object_name": "STARLINK-34681",
        "meta_object_id": "2025-259S",
        "meta_epoch": "2025-12-09T20:00:01.999008",
        "meta_mean_motion": 15.41311998,
        "meta_eccentricity": 0.0001535,
        "meta_inclination": 43.0005,
        "meta_ra_of_asc_node": 64.3429,
        "meta_arg_of_pericenter": 302.3925,
        "meta_mean_anomaly": 273.0659,
        "meta_ephemeris_type": 0,
        "meta_classification_type": "U",
        "meta_norad_cat_id": 66438,
        "meta_element_set_no": 999,
        "meta_rev_at_epoch": 570,
        "meta_bstar": -0.022822,
        "meta_mean_motion_dot": -0.00895079,
        "meta_mean_motion_ddot": 0,
        "tle_line1": "1 66438U 25259S   25343.83335647 -.00895079  00000+0 -22822-1 0  9992",
        "tle_line2": "2 66438  43.0005  64.3429 0001535 302.3925 273.0659 15.41311998  5703"
      },
      "geometry": {
        "type": "Point",
        "coordinates": [
          26.950726090900364,
          -28.151216186333603
        ]
      }
    },
    {
      "type": "Feature",
      "properties": {
        "norad_id": 66439,
        "name": "STARLINK-35327",
        "group": "last-30-days",
        "lat": -42.3446822851709,
        "lon": -15.870080747363609,
        "alt_km": 446.8410275992128,
        "timestamp": "2025-12-10T05:46:12.574268+00:00",
        "meta_object_name": "STARLINK-35327",
        "meta_object_id": "2025-259T",
        "meta_epoch": "2025-12-09T20:00:01.999008",
        "meta_mean_motion": 15.40679408,
        "meta_eccentricity": 8.15e-05,
        "meta_inclination": 43.0003,
        "meta_ra_of_asc_node": 64.4338,
        "meta_arg_of_pericenter": 293.9221,
        "meta_mean_anomaly": 244.487,
        "meta_ephemeris_type": 0,
        "meta_classification_type": "U",
        "meta_norad_cat_id": 66439,
        "meta_element_set_no": 999,
        "meta_rev_at_epoch": 581,
        "meta_bstar": 0.00085599,
        "meta_mean_motion_dot": 0.00035595,
        "meta_mean_motion_ddot": 0,
        "tle_line1": "1 66439U 25259T   25343.83335647  .00035595  00000+0  85599-3 0  9992",
        "tle_line2": "2 66439  43.0003  64.4338 0000815 293.9221 244.4870 15.40679408  5817"
      },
      "geometry": {
        "type": "Point",
        "coordinates": [
          -15.870080747363609,
          -42.3446822851709
        ]
      }
    }
  ]
}